[
    {
        "Altitude(m)": 581531.021006182,
        "Argument of Periapsis(deg)": -0.037671934638287344,
        "Eccentricity": 0.0,
        "Inclination(deg)": 97.0,
        "Latitude(deg)": -46.77707377424179,
        "Longitude(deg)": 158.60552002855846,
        "Mean Anomaly(deg)": 227.00643878197914,
        "RAAN(deg)": 90.00991175603086,
        "Satellite Name": "Starlink Shell 3 1785",
        "Satellite Number": 1785,
        "Semi-Major Axis(m)": 6938478.169268562,
        "Time(s)": 950
    },
    {
        "Altitude(m)": 581780.5147176664,
        "Argument of Periapsis(deg)": -0.03806848131869037,
        "Eccentricity": 0.0,
        "Inclination(deg)": 97.0,
        "Latitude(deg)": -47.390865105532676,
        "Longitude(deg)": 158.40076476903195,
        "Mean Anomaly(deg)": 227.63191497968415,
        "RAAN(deg)": 90.01001609030487,
        "Satellite Name": "Starlink Shell 3 1785",
        "Satellite Number": 1785,
        "Semi-Major Axis(m)": 6938478.169268562,
        "Time(s)": 960
    },
    {
        "Altitude(m)": 582028.9312720195,
        "Argument of Periapsis(deg)": -0.0384650279990934,
        "Eccentricity": 0.0,
        "Inclination(deg)": 97.0,
        "Latitude(deg)": -48.00432651947263,
        "Longitude(deg)": 158.19219248525752,
        "Mean Anomaly(deg)": 228.2573911773892,
        "RAAN(deg)": 90.01012042457886,
        "Satellite Name": "Starlink Shell 3 1785",
        "Satellite Number": 1785,
        "Semi-Major Axis(m)": 6938478.169268562,
        "Time(s)": 970
    },
    {
        "Altitude(m)": 582276.1723044668,
        "Argument of Periapsis(deg)": -0.03886157467949641,
        "Eccentricity": 0.0,
        "Inclination(deg)": 97.0,
        "Latitude(deg)": -48.61744756505698,
        "Longitude(deg)": 157.97962928485768,
        "Mean Anomaly(deg)": 228.8828673750943,
        "RAAN(deg)": 90.01022475885287,
        "Satellite Name": "Starlink Shell 3 1785",
        "Satellite Number": 1785,
        "Semi-Major Axis(m)": 6938478.169268562,
        "Time(s)": 980
    },
    {
        "Altitude(m)": 582522.1398140523,
        "Argument of Periapsis(deg)": -0.03925812135989944,
        "Eccentricity": 0.0,
        "Inclination(deg)": 97.0,
        "Latitude(deg)": -49.23021719839529,
        "Longitude(deg)": 157.7628917139484,
        "Mean Anomaly(deg)": 229.50834357279928,
        "RAAN(deg)": 90.0103290931269,
        "Satellite Name": "Starlink Shell 3 1785",
        "Satellite Number": 1785,
        "Semi-Major Axis(m)": 6938478.169268562,
        "Time(s)": 990
    }
]